[{"OBJECT_NAME":"STARLINK-2491","OBJECT_ID":"2021-027BJ","EPOCH":"2026-03-09T13:59:29.224032","MEAN_MOTION":15.30224895,"ECCENTRICITY":0.0001646,"INCLINATION":53.1618,"RA_OF_ASC_NODE":165.9297,"ARG_OF_PERICENTER":49.2729,"MEAN_ANOMALY":310.8414,"EPHEMERIS_TYPE":0,"CLASSIFICATION_TYPE":"U","NORAD_CAT_ID":48148,"ELEMENT_SET_NO":999,"REV_AT_EPOCH":27248,"BSTAR":0.00035873,"MEAN_MOTION_DOT":0.00010288,"MEAN_MOTION_DDOT":0},{"OBJECT_NAME":"TIANMU-1 10","OBJECT_ID":"2023-101D","EPOCH":"2026-03-09T23:06:46.939392","MEAN_MOTION":15.2921896,"ECCENTRICITY":0.00069292,"INCLINATION":97.2749,"RA_OF_ASC_NODE":122.1027,"ARG_OF_PERICENTER":133.6162,"MEAN_ANOMALY":226.5654,"EPHEMERIS_TYPE":0,"CLASSIFICATION_TYPE":"U","NORAD_CAT_ID":57402,"ELEMENT_SET_NO":999,"REV_AT_EPOCH":14647,"BSTAR":0.00032238884,"MEAN_MOTION_DOT":9.075e-5,"MEAN_MOTION_DDOT":0}]
